{"fetched_at":"2026-07-09T08:00:51.080Z","source":"https://celestrak.org/NORAD/elements/gp.php?NAME=JILIN&FORMAT=JSON","constellation":"jilin-1-early","records":[{"OBJECT_NAME":"JILIN-1","OBJECT_ID":"2015-057D","EPOCH":"2026-07-08T22:41:38.153472","CLASSIFICATION_TYPE":"U","MEAN_MOTION":14.78195008,"ECCENTRICITY":0.00166456,"INCLINATION":97.6514,"RA_OF_ASC_NODE":188.2328,"ARG_OF_PERICENTER":187.1926,"MEAN_ANOMALY":172.9049,"EPHEMERIS_TYPE":0,"NORAD_CAT_ID":40961,"ELEMENT_SET_NO":999,"REV_AT_EPOCH":57882,"BSTAR":0.000083080799,"MEAN_MOTION_DOT":0.00000555,"MEAN_MOTION_DDOT":0},{"OBJECT_NAME":"JILIN-1 03","OBJECT_ID":"2017-002B","EPOCH":"2026-07-08T23:05:27.114432","CLASSIFICATION_TYPE":"U","MEAN_MOTION":15.42120852,"ECCENTRICITY":0.00080338,"INCLINATION":97.1953,"RA_OF_ASC_NODE":196.7465,"ARG_OF_PERICENTER":95.8319,"MEAN_ANOMALY":264.3845,"EPHEMERIS_TYPE":0,"NORAD_CAT_ID":41914,"ELEMENT_SET_NO":999,"REV_AT_EPOCH":52521,"BSTAR":0.00021852266,"MEAN_MOTION_DOT":0.00009278,"MEAN_MOTION_DDOT":0},{"OBJECT_NAME":"JILIN-1 04","OBJECT_ID":"2017-074A","EPOCH":"2026-07-08T22:40:45.075360","CLASSIFICATION_TYPE":"U","MEAN_MOTION":15.43017718,"ECCENTRICITY":0.00051816,"INCLINATION":97.4865,"RA_OF_ASC_NODE":300.1475,"ARG_OF_PERICENTER":116.4154,"MEAN_ANOMALY":243.7626,"EPHEMERIS_TYPE":0,"NORAD_CAT_ID":43022,"ELEMENT_SET_NO":999,"REV_AT_EPOCH":47762,"BSTAR":0.00021984373,"MEAN_MOTION_DOT":0.00009609,"MEAN_MOTION_DDOT":0},{"OBJECT_NAME":"JILIN-1 05","OBJECT_ID":"2017-074B","EPOCH":"2026-07-08T21:47:14.441856","CLASSIFICATION_TYPE":"U","MEAN_MOTION":15.3421935,"ECCENTRICITY":0.00061468,"INCLINATION":97.4871,"RA_OF_ASC_NODE":296.3619,"ARG_OF_PERICENTER":142.2263,"MEAN_ANOMALY":217.9413,"EPHEMERIS_TYPE":0,"NORAD_CAT_ID":43023,"ELEMENT_SET_NO":999,"REV_AT_EPOCH":47733,"BSTAR":0.00017856316,"MEAN_MOTION_DOT":0.00005835,"MEAN_MOTION_DDOT":0},{"OBJECT_NAME":"JILIN-1 06","OBJECT_ID":"2017-074C","EPOCH":"2026-07-08T22:44:49.144128","CLASSIFICATION_TYPE":"U","MEAN_MOTION":15.33949299,"ECCENTRICITY":0.00076354,"INCLINATION":97.4797,"RA_OF_ASC_NODE":293.3832,"ARG_OF_PERICENTER":152.9933,"MEAN_ANOMALY":207.1708,"EPHEMERIS_TYPE":0,"NORAD_CAT_ID":43024,"ELEMENT_SET_NO":999,"REV_AT_EPOCH":47717,"BSTAR":0.00011631174,"MEAN_MOTION_DOT":0.00003741,"MEAN_MOTION_DDOT":0},{"OBJECT_NAME":"JILIN-1 07","OBJECT_ID":"2018-008E","EPOCH":"2026-07-08T22:23:01.960512","CLASSIFICATION_TYPE":"U","MEAN_MOTION":15.35093087,"ECCENTRICITY":0.00074539,"INCLINATION":97.1771,"RA_OF_ASC_NODE":209.2849,"ARG_OF_PERICENTER":353.6825,"MEAN_ANOMALY":6.4323,"EPHEMERIS_TYPE":0,"NORAD_CAT_ID":43159,"ELEMENT_SET_NO":999,"REV_AT_EPOCH":46833,"BSTAR":0.00017121874,"MEAN_MOTION_DOT":0.00005757,"MEAN_MOTION_DDOT":0},{"OBJECT_NAME":"JILIN-1 08","OBJECT_ID":"2018-008F","EPOCH":"2026-07-08T22:45:10.303488","CLASSIFICATION_TYPE":"U","MEAN_MOTION":15.33962161,"ECCENTRICITY":0.00060896,"INCLINATION":97.1805,"RA_OF_ASC_NODE":208.5922,"ARG_OF_PERICENTER":15.6236,"MEAN_ANOMALY":344.5194,"EPHEMERIS_TYPE":0,"NORAD_CAT_ID":43160,"ELEMENT_SET_NO":999,"REV_AT_EPOCH":46828,"BSTAR":0.0001236688,"MEAN_MOTION_DOT":0.00003988,"MEAN_MOTION_DDOT":0},{"OBJECT_NAME":"JILIN-1 09","OBJECT_ID":"2019-005B","EPOCH":"2026-07-08T23:04:37.023168","CLASSIFICATION_TYPE":"U","MEAN_MOTION":15.20706222,"ECCENTRICITY":0.00028608,"INCLINATION":97.4741,"RA_OF_ASC_NODE":284.741,"ARG_OF_PERICENTER":50.0596,"MEAN_ANOMALY":310.089,"EPHEMERIS_TYPE":0,"NORAD_CAT_ID":43943,"ELEMENT_SET_NO":999,"REV_AT_EPOCH":41245,"BSTAR":0.00013634939,"MEAN_MOTION_DOT":0.00002928,"MEAN_MOTION_DDOT":0},{"OBJECT_NAME":"JILIN-1 10","OBJECT_ID":"2019-005E","EPOCH":"2026-07-08T23:09:08.751168","CLASSIFICATION_TYPE":"U","MEAN_MOTION":15.2596128,"ECCENTRICITY":0.00079455,"INCLINATION":97.4789,"RA_OF_ASC_NODE":288.773,"ARG_OF_PERICENTER":191.0109,"MEAN_ANOMALY":169.0957,"EPHEMERIS_TYPE":0,"NORAD_CAT_ID":43946,"ELEMENT_SET_NO":999,"REV_AT_EPOCH":41263,"BSTAR":0.00015193191,"MEAN_MOTION_DOT":0.0000383,"MEAN_MOTION_DDOT":0}]}
