JILIN-1                 
1 40961U 15057D   26189.94558048  .00000555  00000+0  83081-4 0  9995
2 40961  97.6514 188.2328 0016645 187.1926 172.9049 14.78195008578827
JILIN-1 03              
1 41914U 17002B   26189.96211938  .00009278  00000+0  21852-3 0  9990
2 41914  97.1953 196.7465 0008033  95.8319 264.3845 15.42120852525219
JILIN-1 04              
1 43022U 17074A   26189.94496615  .00009609  00000+0  21984-3 0  9990
2 43022  97.4865 300.1475 0005181 116.4154 243.7626 15.43017718477622
JILIN-1 05              
1 43023U 17074B   26189.90780604  .00005835  00000+0  17856-3 0  9991
2 43023  97.4871 296.3619 0006146 142.2263 217.9413 15.34219350477337
JILIN-1 06              
1 43024U 17074C   26189.94779102  .00003741  00000+0  11631-3 0  9996
2 43024  97.4797 293.3832 0007635 152.9933 207.1708 15.33949299477176
JILIN-1 07              
1 43159U 18008E   26189.93266158  .00005757  00000+0  17122-3 0  9994
2 43159  97.1771 209.2849 0007453 353.6825   6.4323 15.35093087468334
JILIN-1 08              
1 43160U 18008F   26189.94803592  .00003988  00000+0  12367-3 0  9996
2 43160  97.1805 208.5922 0006089  15.6236 344.5194 15.33962161468285
JILIN-1 09              
1 43943U 19005B   26189.96153962  .00002928  00000+0  13635-3 0  9996
2 43943  97.4741 284.7410 0002860  50.0596 310.0890 15.20706222412458
JILIN-1 10              
1 43946U 19005E   26189.96468462  .00003830  00000+0  15193-3 0  9997
2 43946  97.4789 288.7730 0007945 191.0109 169.0957 15.25961280412635
